[{"OBJECT_NAME":"OBJECT J","OBJECT_ID":"2023-085J","EPOCH":"2026-03-09T22:47:59.920512","MEAN_MOTION":15.31507187,"ECCENTRICITY":0.00067028,"INCLINATION":97.4828,"RA_OF_ASC_NODE":180.1819,"ARG_OF_PERICENTER":41.7877,"MEAN_ANOMALY":318.3875,"EPHEMERIS_TYPE":0,"CLASSIFICATION_TYPE":"U","NORAD_CAT_ID":57012,"ELEMENT_SET_NO":999,"REV_AT_EPOCH":15156,"BSTAR":0.00064525349,"MEAN_MOTION_DOT":0.00019595,"MEAN_MOTION_DDOT":0},{"OBJECT_NAME":"STARLINK-33991","OBJECT_ID":"2025-110AC","EPOCH":"2026-03-09T03:27:54.678240","MEAN_MOTION":15.30199785,"ECCENTRICITY":0.00012684,"INCLINATION":53.1603,"RA_OF_ASC_NODE":28.9602,"ARG_OF_PERICENTER":89.8434,"MEAN_ANOMALY":270.2712,"EPHEMERIS_TYPE":0,"CLASSIFICATION_TYPE":"U","NORAD_CAT_ID":64122,"ELEMENT_SET_NO":999,"REV_AT_EPOCH":4579,"BSTAR":0.0016903776,"MEAN_MOTION_DOT":0.00050042,"MEAN_MOTION_DDOT":0}]
